NORAD_CAT_ID,OBJECT_NAME,OBJECT_TYPE,EPOCH,MEAN_MOTION,ECCENTRICITY,INCLINATION,RA_OF_ASC_NODE,ARG_OF_PERICENTER,MEAN_ANOMALY,BSTAR,MEAN_MOTION_DOT,MEAN_MOTION_DDOT,TLE_LINE0,TLE_LINE1,TLE_LINE2,SEMIMAJOR_AXIS,PERIOD,APOGEE,PERIGEE,DECAYED
52500.0,STARLINK-3866,PAYLOAD,2023-03-11 13:38:42,15.0883303,0.0001198,53.2157,270.8203,101.9137,258.1989,0.00031376,4.708e-05,0.0,0 STARLINK-3866,1 52500U 22049BB  23070.56855007  .00004708  00000-0  31376-3 0  9999,2 52500  53.2157 270.8203 0001198 101.9137 258.1989 15.08833030 47352,6917.902,95.438,540.595,538.938,0.0
52500.0,STARLINK-3866,PAYLOAD,2023-03-11 21:35:38,15.08835467,0.0001262,53.2148,269.3338,101.3965,258.7168,0.00051882,7.978e-05,0.0,0 STARLINK-3866,1 52500U 22049BB  23070.89975060  .00007978  00000-0  51882-3 0  9993,2 52500  53.2148 269.3338 0001262 101.3965 258.7168 15.08835467 47406,6917.894,95.438,540.632,538.886,0.0
52500.0,STARLINK-3866,PAYLOAD,2023-03-12 13:29:29,15.08841305,0.0001412,53.2154,266.3586,113.8786,246.2355,0.00020999,3.056e-05,0.0,0 STARLINK-3866,1 52500U 22049BB  23071.56214677  .00003056  00000-0  20999-3 0  9996,2 52500  53.2154 266.3586 0001412 113.8786 246.2355 15.08841305 47667,6917.876,95.437,540.718,538.765,0.0
52500.0,STARLINK-3866,PAYLOAD,2023-03-12 21:26:24,15.08850753,0.0001184,53.2143,264.8737,98.7618,261.3509,0.00024746,3.654e-05,0.0,0 STARLINK-3866,1 52500U 22049BB  23071.89334182  .00003654  00000-0  24746-3 0  9994,2 52500  53.2143 264.8737 0001184  98.7618 261.3509 15.08850753 47551,6917.848,95.437,540.532,538.893,0.0
52500.0,STARLINK-3866,PAYLOAD,2023-03-13 13:20:16,15.08836006,0.0001202,53.2154,261.8985,111.2753,248.8367,-4.6799e-05,-1.032e-05,0.0,0 STARLINK-3866,1 52500U 22049BB  23072.55574775 -.00001032  00000-0 -46799-4 0  9995,2 52500  53.2154 261.8985 0001202 111.2753 248.8367 15.08836006 47813,6917.893,95.438,540.589,538.926,0.0
52500.0,STARLINK-3866,PAYLOAD,2023-03-13 21:17:12,15.08840592,0.0001168,53.2151,260.4119,108.1718,251.9402,5.5121e-05,5.9e-06,0.0,0 STARLINK-3866,1 52500U 22049BB  23072.88694635  .00000590  00000-0  55121-4 0  9994,2 52500  53.2151 260.4119 0001168 108.1718 251.9402 15.08840592 47709,6917.879,95.438,540.552,538.936,0.0
52500.0,STARLINK-3866,PAYLOAD,2023-03-14 13:11:03,15.08843699,9.98e-05,53.2141,257.439,100.9312,259.1792,7.8446e-05,9.61e-06,0.0,0 STARLINK-3866,1 52500U 22049BB  23073.54934584  .00000961  00000-0  78446-4 0  9995,2 52500  53.2141 257.4390 0000998 100.9312 259.1792 15.08843699 47809,6917.869,95.437,540.424,539.044,0.0
52500.0,STARLINK-3866,PAYLOAD,2023-03-14 21:07:58,15.08851771,0.000101,53.2138,255.952,99.6418,260.4689,0.00025872,3.833e-05,0.0,0 STARLINK-3866,1 52500U 22049BB  23073.88054233  .00003833  00000-0  25872-3 0  9991,2 52500  53.2138 255.9520 0001010  99.6418 260.4689 15.08851771 48014,6917.844,95.437,540.408,539.011,0.0
52500.0,STARLINK-3866,PAYLOAD,2023-03-15 13:01:50,15.08843265,0.0001197,53.2145,252.9793,94.0333,266.0796,0.0001318,1.811e-05,0.0,0 STARLINK-3866,1 52500U 22049BB  23074.54294574  .00001811  00000-0  13180-3 0  9992,2 52500  53.2145 252.9793 0001197  94.0333 266.0796 15.08843265 48113,6917.87,95.437,540.563,538.907,0.0
52500.0,STARLINK-3866,PAYLOAD,2023-03-15 20:58:45,15.08849972,0.0001436,53.2127,251.4913,91.5778,268.5379,0.00024667,3.641e-05,0.0,0 STARLINK-3866,1 52500U 22049BB  23074.87414315  .00003641  00000-0  24667-3 0  9990,2 52500  53.2127 251.4913 0001436  91.5778 268.5379 15.08849972 48005,6917.85,95.437,540.708,538.722,0.0
52500.0,STARLINK-3866,PAYLOAD,2023-03-16 04:55:41,15.08829119,3.13e-05,53.2134,250.0047,98.8962,261.2066,-0.00019556,-3.397e-05,0.0,0 STARLINK-3866,1 52500U 22049BB  23075.20534700 -.00003397  00000-0 -19556-3 0  9990,2 52500  53.2134 250.0047 0000313  98.8962 261.2066 15.08829119 48211,6917.914,95.438,539.995,539.562,0.0
52500.0,STARLINK-3866,PAYLOAD,2023-03-16 11:17:14,15.08822817,9.25e-05,53.2145,248.8161,78.9409,281.1688,-0.00032921,-5.521e-05,0.0,0 STARLINK-3866,1 52500U 22049BB  23075.47031234 -.00005521  00000-0 -32921-3 0  9995,2 52500  53.2145 248.8161 0000925  78.9409 281.1688 15.08822817 48094,6917.933,95.439,540.438,539.158,0.0
52500.0,STARLINK-3866,PAYLOAD,2023-03-16 19:14:10,15.08829011,0.0001175,53.2158,247.3306,72.6499,287.4622,-5.3533e-05,-1.139e-05,0.0,0 STARLINK-3866,1 52500U 22049BB  23075.80151417 -.00001139  00000-0 -53533-4 0  9992,2 52500  53.2158 247.3306 0001175  72.6499 287.4622 15.08829011 48147,6917.914,95.438,540.592,538.966,0.0
52500.0,STARLINK-3866,PAYLOAD,2023-03-17 06:21:53,15.08834008,0.0001335,53.2152,245.2489,69.2653,290.8482,0.00029353,4.386e-05,0.0,0 STARLINK-3866,1 52500U 22049BB  23076.26519720  .00004386  00000-0  29353-3 0  9995,2 52500  53.2152 245.2489 0001335  69.2653 290.8482 15.08834008 48371,6917.899,95.438,540.687,538.84,0.0
52500.0,STARLINK-3866,PAYLOAD,2023-03-17 12:43:25,15.08845841,0.0001278,53.2146,244.059,67.2473,292.8654,0.001065,0.00016705,0.0,0 STARLINK-3866,1 52500U 22049BB  23076.53015825  .00016705  00000-0  10650-2 0  9999,2 52500  53.2146 244.0590 0001278  67.2473 292.8654 15.08845841 48255,6917.863,95.437,540.612,538.843,0.0
52500.0,STARLINK-3866,PAYLOAD,2023-03-17 17:29:34,15.08854048,0.0001266,53.2146,243.167,66.3481,293.7644,0.0012994,0.0002046,0.0,0 STARLINK-3866,1 52500U 22049BB  23076.72887643  .00020460  00000-0  12994-2 0  9991,2 52500  53.2146 243.1670 0001266  66.3481 293.7644 15.08854048 48449,6917.837,95.437,540.578,538.827,0.0
52500.0,STARLINK-3866,PAYLOAD,2023-03-18 14:09:35,15.08847853,0.0001201,53.2149,239.3004,69.8067,290.3054,0.00035159,5.313e-05,0.0,0 STARLINK-3866,1 52500U 22049BB  23077.58999495  .00005313  00000-0  35159-3 0  9994,2 52500  53.2149 239.3004 0001201  69.8067 290.3054 15.08847853 48575,6917.856,95.437,540.552,538.891,0.0
52500.0,STARLINK-3866,PAYLOAD,2023-03-18 17:20:21,15.08849633,0.000115,53.2151,238.7053,72.5324,287.5794,0.00035859,5.425e-05,0.0,0 STARLINK-3866,1 52500U 22049BB  23077.72247386  .00005425  00000-0  35859-3 0  9996,2 52500  53.2151 238.7053 0001150  72.5324 287.5794 15.08849633 48437,6917.851,95.437,540.511,538.92,0.0
52500.0,STARLINK-3866,PAYLOAD,2023-03-19 14:00:22,15.08844709,0.000119,53.215,234.8399,73.8578,286.2545,9.8106e-05,1.274e-05,0.0,0 STARLINK-3866,1 52500U 22049BB  23078.58359287  .00001274  00000-0  98106-4 0  9998,2 52500  53.2150 234.8399 0001190  73.8578 286.2545 15.08844709 48726,6917.866,95.437,540.554,538.908,0.0
52500.0,STARLINK-3866,PAYLOAD,2023-03-19 17:11:08,15.08848628,0.0001181,53.2151,234.2447,75.058,285.0543,0.00016588,2.354e-05,0.0,0 STARLINK-3866,1 52500U 22049BB  23078.71607064  .00002354  00000-0  16588-3 0  9995,2 52500  53.2151 234.2447 0001181  75.0580 285.0543 15.08848628 48585,6917.854,95.437,540.536,538.902,0.0
52500.0,STARLINK-3866,PAYLOAD,2023-03-20 13:51:09,15.08839867,0.0001153,53.2151,230.3803,77.2823,282.8298,-3.9185e-05,-9.11e-06,0.0,0 STARLINK-3866,1 52500U 22049BB  23079.57719295 -.00000911  00000-0 -39185-4 0  9998,2 52500  53.2151 230.3803 0001153  77.2823 282.8298 15.08839867 48713,6917.881,95.438,540.543,538.948,0.0
52500.0,STARLINK-3866,PAYLOAD,2023-03-20 17:01:55,15.08844626,0.0001186,53.2153,229.7863,79.3739,280.7386,2.6202e-05,1.29e-06,0.0,0 STARLINK-3866,1 52500U 22049BB  23079.70967002  .00000129  00000-0  26202-4 0  9999,2 52500  53.2153 229.7863 0001186  79.3739 280.7386 15.08844626 48891,6917.866,95.437,540.552,538.911,0.0
52500.0,STARLINK-3866,PAYLOAD,2023-03-21 02:34:15,15.08827226,0.0002243,53.2152,228.0002,85.4848,274.64,-0.00016619,-2.931e-05,0.0,0 STARLINK-3866,1 52500U 22049BB  23080.10712102 -.00002931  00000-0 -16619-3 0  9999,2 52500  53.2152 228.0002 0002243  85.4848 274.6400 15.08827226 48954,6917.919,95.438,541.336,538.233,0.0
52500.0,STARLINK-3866,PAYLOAD,2023-03-21 13:41:56,15.08836296,0.000105,53.2162,225.9179,82.0742,278.0369,1.8197e-05,2e-08,0.0,0 STARLINK-3866,1 52500U 22049BB  23080.57079360  .00000002  00000-0  18197-4 0  9991,2 52500  53.2162 225.9179 0001050  82.0742 278.0369 15.08836296 49025,6917.892,95.438,540.483,539.03,0.0
52500.0,STARLINK-3866,PAYLOAD,2023-03-22 16:43:29,15.08848351,0.000112,53.2156,220.8648,94.9978,265.1142,0.00012302,1.671e-05,0.0,0 STARLINK-3866,1 52500U 22049BB  23081.69686901  .00001671  00000-0  12302-3 0  9994,2 52500  53.2156 220.8648 0001120  94.9978 265.1142 15.08848351 49193,6917.855,95.437,540.495,538.945,0.0
52500.0,STARLINK-3866,PAYLOAD,2023-03-23 13:23:30,15.08840645,0.0001063,53.2157,216.9992,98.4239,261.6874,0.00015276,2.144e-05,0.0,0 STARLINK-3866,1 52500U 22049BB  23082.55799508  .00002144  00000-0  15276-3 0  9997,2 52500  53.2157 216.9992 0001063  98.4239 261.6874 15.08840645 49323,6917.878,95.438,540.479,539.008,0.0
52500.0,STARLINK-3866,PAYLOAD,2023-03-23 16:34:16,15.08845408,0.0001166,53.2153,216.404,93.7683,266.3442,0.0002027,2.94e-05,0.0,0 STARLINK-3866,1 52500U 22049BB  23082.69047213  .00002940  00000-0  20270-3 0  9995,2 52500  53.2153 216.4040 0001166  93.7683 266.3442 15.08845408 49182,6917.864,95.437,540.535,538.922,0.0
52500.0,STARLINK-3866,PAYLOAD,2023-03-24 02:06:34,15.08865585,0.000118,53.2155,214.6187,101.4678,258.6446,0.00055445,8.553e-05,0.0,0 STARLINK-3866,1 52500U 22049BB  23083.08790349  .00008553  00000-0  55445-3 0  9992,2 52500  53.2155 214.6187 0001180 101.4678 258.6446 15.08865585 49404,6917.802,95.436,540.483,538.851,0.0
52500.0,STARLINK-3866,PAYLOAD,2023-03-24 11:38:52,15.08889067,0.0001439,53.2159,212.839,64.4362,295.6779,0.0010183,0.00015977,0.0,0 STARLINK-3866,1 52500U 22049BB  23083.48533183  .00015977  00000-0  10183-2 0  9994,2 52500  53.2159 212.8390 0001439  64.4362 295.6779 15.08889067 49466,6917.73,95.434,540.591,538.6,0.0
52500.0,STARLINK-3866,PAYLOAD,2023-03-24 13:14:15,15.0889667,0.0001311,53.2159,212.5411,72.17,287.9435,0.0015811,0.00025004,0.0,0 STARLINK-3866,1 52500U 22049BB  23083.55157095  .00025004  00000-0  15811-2 0  9991,2 52500  53.2159 212.5411 0001311  72.1700 287.9435 15.08896670 49313,6917.707,95.434,540.479,538.665,0.0
